SHIYAN-1 (SY-1)         
1 28220U 04012A   26068.73650539  .00016393  00000+0  54854-3 0  9991
2 28220  97.8764 140.5238 0005873  23.6952 336.4557 15.31043463195862
STARLINK-33928          
1 64003U 25101K   26068.12771230  .00020029  00000+0  73480-3 0  9994
2 64003  43.0010   0.7654 0001008 269.0947  90.9789 15.27605382 46978
